{
  "type": "FeatureCollection",
  "features": [
    {
      "type": "Feature",
      "properties": {
        "norad_id": 66516,
        "name": "STARLINK-35924",
        "group": "last-30-days",
        "lat": 42.97839339954767,
        "lon": 109.27057850906252,
        "alt_km": 437.7147937160689,
        "timestamp": "2025-12-18T21:31:49.697537+00:00",
        "meta_object_name": "STARLINK-35924",
        "meta_object_id": "2025-265A",
        "meta_epoch": "2025-12-18T02:28:11.494848",
        "meta_mean_motion": 15.40722625,
        "meta_eccentricity": 0.0001092,
        "meta_inclination": 43.0004,
        "meta_ra_of_asc_node": 23.2173,
        "meta_arg_of_pericenter": 261.6063,
        "meta_mean_anomaly": 98.467,
        "meta_ephemeris_type": 0,
        "meta_classification_type": "U",
        "meta_norad_cat_id": 66516,
        "meta_element_set_no": 999,
        "meta_rev_at_epoch": 458,
        "meta_bstar": 0.00090942531,
        "meta_mean_motion_dot": 0.00037902,
        "meta_mean_motion_ddot": 0,
        "tle_line1": "1 66516U 25265A   25352.10291082  .00037902  00000+0  90943-3 0  9992",
        "tle_line2": "2 66516  43.0004  23.2173 0001092 261.6063  98.4670 15.40722625  4586"
      },
      "geometry": {
        "type": "Point",
        "coordinates": [
          109.27057850906252,
          42.97839339954767
        ]
      }
    },
    {
      "type": "Feature",
      "properties": {
        "norad_id": 66517,
        "name": "STARLINK-35937",
        "group": "last-30-days",
        "lat": -42.60243491797363,
        "lon": -62.51685989327156,
        "alt_km": 446.1814485419254,
        "timestamp": "2025-12-18T21:31:49.697609+00:00",
        "meta_object_name": "STARLINK-35937",
        "meta_object_id": "2025-265B",
        "meta_epoch": "2025-12-18T08:00:01.999872",
        "meta_mean_motion": 15.40674927,
        "meta_eccentricity": 0.00017531,
        "meta_inclination": 43.0001,
        "meta_ra_of_asc_node": 21.439,
        "meta_arg_of_pericenter": 277.8679,
        "meta_mean_anomaly": 108.4394,
        "meta_ephemeris_type": 0,
        "meta_classification_type": "U",
        "meta_norad_cat_id": 66517,
        "meta_element_set_no": 999,
        "meta_rev_at_epoch": 589,
        "meta_bstar": 0.0007559427,
        "meta_mean_motion_dot": 0.00031378,
        "meta_mean_motion_ddot": 0,
        "tle_line1": "1 66517U 25265B   25352.33335648  .00031378  00000+0  75594-3 0  9991",
        "tle_line2": "2 66517  43.0001  21.4390 0001753 277.8679 108.4394 15.40674927  5892"
      },
      "geometry": {
        "type": "Point",
        "coordinates": [
          -62.51685989327156,
          -42.60243491797363
        ]
      }
    },
    {
      "type": "Feature",
      "properties": {
        "norad_id": 66518,
        "name": "STARLINK-35962",
        "group": "last-30-days",
        "lat": -6.711732686735926,
        "lon": -154.34438072950667,
        "alt_km": 444.3448151467637,
        "timestamp": "2025-12-18T21:31:49.697626+00:00",
        "meta_object_name": "STARLINK-35962",
        "meta_object_id": "2025-265C",
        "meta_epoch": "2025-12-18T08:00:01.999872",
        "meta_mean_motion": 15.40681317,
        "meta_eccentricity": 0.00013828,
        "meta_inclination": 43.0008,
        "meta_ra_of_asc_node": 21.6501,
        "meta_arg_of_pericenter": 258.1448,
        "meta_mean_anomaly": 41.1243,
        "meta_ephemeris_type": 0,
        "meta_classification_type": "U",
        "meta_norad_cat_id": 66518,
        "meta_element_set_no": 999,
        "meta_rev_at_epoch": 589,
        "meta_bstar": 0.00047580421,
        "meta_mean_motion_dot": 0.00019611,
        "meta_mean_motion_ddot": 0,
        "tle_line1": "1 66518U 25265C   25352.33335648  .00019611  00000+0  47580-3 0  9992",
        "tle_line2": "2 66518  43.0008  21.6501 0001382 258.1448  41.1243 15.40681317  5897"
      },
      "geometry": {
        "type": "Point",
        "coordinates": [
          -154.34438072950667,
          -6.711732686735926
        ]
      }
    },
    {
      "type": "Feature",
      "properties": {
        "norad_id": 66519,
        "name": "STARLINK-35931",
        "group": "last-30-days",
        "lat": -3.3359371512397487,
        "lon": 14.40696710281361,
        "alt_km": 413.8781217566948,
        "timestamp": "2025-12-18T21:31:49.697639+00:00",
        "meta_object_name": "STARLINK-35931",
        "meta_object_id": "2025-265D",
        "meta_epoch": "2025-12-17T11:32:34.790208",
        "meta_mean_motion": 15.5058288,
        "meta_eccentricity": 0.00018413,
        "meta_inclination": 42.9979,
        "meta_ra_of_asc_node": 26.2806,
        "meta_arg_of_pericenter": 290.0106,
        "meta_mean_anomaly": 70.0556,
        "meta_ephemeris_type": 0,
        "meta_classification_type": "U",
        "meta_norad_cat_id": 66519,
        "meta_element_set_no": 999,
        "meta_rev_at_epoch": 449,
        "meta_bstar": 0.0013422359,
        "meta_mean_motion_dot": 0.00079214,
        "meta_mean_motion_ddot": 0,
        "tle_line1": "1 66519U 25265D   25351.48095822  .00079214  00000+0  13422-2 0  9997",
        "tle_line2": "2 66519  42.9979  26.2806 0001841 290.0106  70.0556 15.50582880  4497"
      },
      "geometry": {
        "type": "Point",
        "coordinates": [
          14.40696710281361,
          -3.3359371512397487
        ]
      }
    },
    {
      "type": "Feature",
      "properties": {
        "norad_id": 66520,
        "name": "STARLINK-35952",
        "group": "last-30-days",
        "lat": 25.82575012738914,
        "lon": 167.2269007023201,
        "alt_km": 439.8631814952596,
        "timestamp": "2025-12-18T21:31:49.697651+00:00",
        "meta_object_name": "STARLINK-35952",
        "meta_object_id": "2025-265E",
        "meta_epoch": "2025-12-18T02:15:17.235936",
        "meta_mean_motion": 15.40720208,
        "meta_eccentricity": 8.039e-05,
        "meta_inclination": 42.9999,
        "meta_ra_of_asc_node": 23.1465,
        "meta_arg_of_pericenter": 242.2259,
        "meta_mean_anomaly": 117.8516,
        "meta_ephemeris_type": 0,
        "meta_classification_type": "U",
        "meta_norad_cat_id": 66520,
        "meta_element_set_no": 999,
        "meta_rev_at_epoch": 458,
        "meta_bstar": 0.00093854046,
        "meta_mean_motion_dot": 0.00039129,
        "meta_mean_motion_ddot": 0,
        "tle_line1": "1 66520U 25265E   25352.09394949  .00039129  00000+0  93854-3 0  9998",
        "tle_line2": "2 66520  42.9999  23.1465 0000803 242.2259 117.8516 15.40720208  4586"
      },
      "geometry": {
        "type": "Point",
        "coordinates": [
          167.2269007023201,
          25.82575012738914
        ]
      }
    },
    {
      "type": "Feature",
      "properties": {
        "norad_id": 66521,
        "name": "STARLINK-35915",
        "group": "last-30-days",
        "lat": -30.009696169999565,
        "lon": -123.38944869178147,
        "alt_km": 446.1863692657271,
        "timestamp": "2025-12-18T21:31:49.697664+00:00",
        "meta_object_name": "STARLINK-35915",
        "meta_object_id": "2025-265F",
        "meta_epoch": "2025-12-18T08:00:01.999872",
        "meta_mean_motion": 15.40678655,
        "meta_eccentricity": 0.00010584,
        "meta_inclination": 43.0008,
        "meta_ra_of_asc_node": 21.5586,
        "meta_arg_of_pericenter": 262.5016,
        "meta_mean_anomaly": 74.1088,
        "meta_ephemeris_type": 0,
        "meta_classification_type": "U",
        "meta_norad_cat_id": 66521,
        "meta_element_set_no": 999,
        "meta_rev_at_epoch": 589,
        "meta_bstar": 0.00048740436,
        "meta_mean_motion_dot": 0.00020096,
        "meta_mean_motion_ddot": 0,
        "tle_line1": "1 66521U 25265F   25352.33335648  .00020096  00000+0  48740-3 0  9994",
        "tle_line2": "2 66521  43.0008  21.5586 0001058 262.5016  74.1088 15.40678655  5897"
      },
      "geometry": {
        "type": "Point",
        "coordinates": [
          -123.38944869178147,
          -30.009696169999565
        ]
      }
    },
    {
      "type": "Feature",
      "properties": {
        "norad_id": 66522,
        "name": "STARLINK-35946",
        "group": "last-30-days",
        "lat": -29.40850808884307,
        "lon": -19.121836160403348,
        "alt_km": 448.09596377084654,
        "timestamp": "2025-12-18T21:31:49.697676+00:00",
        "meta_object_name": "STARLINK-35946",
        "meta_object_id": "2025-265G",
        "meta_epoch": "2025-12-18T08:00:01.999872",
        "meta_mean_motion": 15.42380882,
        "meta_eccentricity": 0.00016782,
        "meta_inclination": 43,
        "meta_ra_of_asc_node": 21.3501,
        "meta_arg_of_pericenter": 280.128,
        "meta_mean_anomaly": 142.4754,
        "meta_ephemeris_type": 0,
        "meta_classification_type": "U",
        "meta_norad_cat_id": 66522,
        "meta_element_set_no": 999,
        "meta_rev_at_epoch": 589,
        "meta_bstar": -0.052790953,
        "meta_mean_motion_dot": -0.02069632,
        "meta_mean_motion_ddot": 0,
        "tle_line1": "1 66522U 25265G   25352.33335648 -.02069632  00000+0 -52791-1 0  9997",
        "tle_line2": "2 66522  43.0000  21.3501 0001678 280.1280 142.4754 15.42380882  5895"
      },
      "geometry": {
        "type": "Point",
        "coordinates": [
          -19.121836160403348,
          -29.40850808884307
        ]
      }
    }
  ]
}